PERSEUS-M1              
1 40039U 14033AF  26189.31072032  .00001235  00000+0  11636-3 0  9991
2 40039  97.9646 133.7908 0010525 221.7278 138.3140 14.95697735653798
POLYITAN-1              
1 40042U 14033AJ  26188.93121191  .00011348  00000+0  34689-3 0  9992
2 40042  98.0942 217.1650 0008406  84.8974 275.3226 15.34031517656772
TIGRISAT                
1 40043U 14033AK  26189.20333151  .00001283  00000+0  15273-3 0  9990
2 40043  97.7856 338.7368 0049257   7.3778 352.8151 14.85235368648741
AEROCUBE 6A             
1 40045U 14033AM  26189.06183296  .00002813  00000+0  23824-3 0  9990
2 40045  97.7238 355.7920 0037117 305.4652  54.3108 14.98296383649740
AEROCUBE 6B             
1 40046U 14033AN  26188.71023843  .00002971  00000+0  24186-3 0  9990
2 40046  97.7215 355.2788 0037847 296.6954  63.0396 14.99755397649831
CANX-4                  
1 40055U 14034C   26189.49759015  .00000694  00000+0  96243-4 0  9998
2 40055  98.3095  65.5905 0011668 306.7080  53.3059 14.81303562647685
CANX-5                  
1 40056U 14034D   26189.09048680  .00000653  00000+0  90910-4 0  9994
2 40056  98.3098  65.2133 0011677 308.3694  51.6468 14.81319930638432
UKUBE-1                 
1 40074U 14037F   26189.25532567  .00004196  00000+0  23627-3 0  9993
2 40074  98.4246 194.7456 0003317 100.2797 259.8806 15.13879421651748
BRITE-PL2 (HEWELIUSZ)   
1 40119U 14049B   26189.26078452  .00001727  00000+0  16450-3 0  9998
2 40119  97.9110 301.4258 0014868  44.9220 315.3201 14.94672181644591
AEROCUBE 5C             
1 40965U 15058B   26189.29186465  .00001816  00000+0  16826-3 0  9991
2 40965  64.7654 196.9293 0131867  55.0711 306.2706 14.91547788368805
AEROCUBE 7              
1 40966U 15058C   26189.36135590  .00002855  00000+0  23359-3 0  9996
2 40966  64.7608 178.4861 0121575  53.3804 307.8418 14.95869940369124
FOX-1A (AO-85)          
1 40967U 15058D   26189.34630242  .00001594  00000+0  15149-3 0  9996
2 40967  64.7733 213.2226 0131833  48.4039 312.8281 14.91062267116723
SINOD-D 1               
1 40968U 15058E   26189.47047871  .00003105  00000+0  25218-3 0  9999
2 40968  64.7734 192.2541 0120508  44.7381 316.3376 14.96046656119846
SNAP-3 ALICE            
1 40970U 15058G   26189.54681311  .00129555  00000+0  12333-2 0  9994
2 40970  64.7498  29.7958 0023689 353.4785   6.6051 15.65825803120221
LMRST-SAT               
1 40971U 15058H   26189.03868599  .00001488  00000+0  14332-3 0  9990
2 40971  64.7739 210.5563 0133368  50.5319 310.7501 14.90676691116664
SNAP-3 EDDIE            
1 40972U 15058J   26189.52000064  .00124407  00000+0  11247-2 0  9998
2 40972  64.7405  20.4534 0024597 356.2396   3.8564 15.67091294122363
PROPCUBE 3              
1 40973U 15058K   26189.02291486  .00002298  00000+0  19686-3 0  9993
2 40973  64.7669 187.4306 0125233  51.7463 309.4841 14.94377515117918
BISONSAT                
1 40974U 15058L   26188.87250539  .00009399  00000+0  44684-3 0  9995
2 40974  64.7578 106.7372 0081376  38.9546 321.7402 15.16787657118753
SNAP-3 JIMI             
1 40975U 15058M   26189.29004248  .00004639  00000+0  31946-3 0  9996
2 40975  64.7636 152.9920 0107280  46.9801 314.0242 15.02542304117396
PROPCUBE 1 (FLORA)      
1 40976U 15058N   26189.54995262  .00001322  00000+0  13408-3 0  9999
2 40976  64.7731 229.0228 0132012  52.6256 308.6791 14.89308548119449
SINOD-D 3               
1 40977U 15058P   26189.32564808  .00002066  00000+0  18159-3 0  9998
2 40977  64.7708 209.8037 0120551  49.7948 311.3641 14.94138888117917
RAVAN                   
1 41849U 16067B   26189.14090624  .00040037  00000+0  55667-3 0  9993
2 41849  97.9852  81.1647 0001564 269.3757  90.7317 15.56890885530954
CELTEE 1                
1 41850U 16067C   26189.60514709  .00003332  00000+0  15880-3 0  9991
2 41850  98.0651  57.6329 0002097 118.4249 241.7196 15.19898372529131
OPTICUBE 04             
1 41851U 16067D   26189.35486952  .00001482  00000+0  96031-4 0  9994
2 41851  98.0684  42.7419 0016617  49.7646 310.5032 15.09751902528367
AEROCUBE 8D             
1 41852U 16067E   26189.09311531  .00003959  00000+0  16339-3 0  9999
2 41852  98.0657  60.8554 0004900  74.3063 285.8713 15.24701518529252
AEROCUBE 8C             
1 41853U 16067F   26188.06477431  .00005788  00000+0  23555-3 0  9998
2 41853  98.0530  56.9510 0005109  10.9574 349.1772 15.24945674529090
CORVUS BC2              
1 42846U 17042X   26189.38508167  .00002179  00000+0  15156-3 0  9991
2 42846  97.4092 349.9145 0013935  44.8097 315.4254 15.06433206490259
CORVUS BC1              
1 42847U 17042Y   26189.24451414  .00001877  00000+0  13058-3 0  9992
2 42847  97.4125 350.6071 0012340  24.3620 335.8189 15.06597967490267
MAKERSAT 0              
1 43016U 17073D   26189.40175185  .00012320  00000+0  32793-3 0  9993
2 43016  97.4598  72.0927 0105079 196.4808 163.3010 15.32828073469713
SIRION PATHFINDER-2     
1 43759U 18099B   26189.38839383  .00002662  00000+0  14705-3 0  9991
2 43759  97.4245 237.9427 0007773 216.4315 143.6389 15.14742044415838
