OBJECT_NAME,OBJECT_ID,EPOCH,MEAN_MOTION,ECCENTRICITY,INCLINATION,RA_OF_ASC_NODE,ARG_OF_PERICENTER,MEAN_ANOMALY,EPHEMERIS_TYPE,CLASSIFICATION_TYPE,NORAD_CAT_ID,ELEMENT_SET_NO,REV_AT_EPOCH,BSTAR,MEAN_MOTION_DOT,MEAN_MOTION_DDOT
PERSEUS-M1,2014-033AF,2026-07-08T07:27:26.235648,14.95697735,.00105253,97.9646,133.7908,221.7278,138.3140,0,U,40039,999,65379,.11636278E-3,.1235E-4,0
POLYITAN-1,2014-033AJ,2026-07-07T22:20:56.709024,15.34031517,.00084064,98.0942,217.1650,84.8974,275.3226,0,U,40042,999,65677,.34689399E-3,.11348E-3,0
TIGRISAT,2014-033AK,2026-07-08T04:52:47.842464,14.85235368,.00492574,97.7856,338.7368,7.3778,352.8151,0,U,40043,999,64874,.15273215E-3,.1283E-4,0
AEROCUBE 6A,2014-033AM,2026-07-08T01:29:02.367744,14.98296383,.00371175,97.7238,355.7920,305.4652,54.3108,0,U,40045,999,64974,.23824104E-3,.2813E-4,0
AEROCUBE 6B,2014-033AN,2026-07-07T17:02:44.600352,14.99755397,.00378479,97.7215,355.2788,296.6954,63.0396,0,U,40046,999,64983,.24186486E-3,.2971E-4,0
CANX-4,2014-034C,2026-07-08T11:56:31.788960,14.81303562,.00116686,98.3095,65.5905,306.7080,53.3059,0,U,40055,999,64768,.96242731E-4,.694E-5,0
CANX-5,2014-034D,2026-07-08T02:10:18.059520,14.81319930,.00116777,98.3098,65.2133,308.3694,51.6468,0,U,40056,999,63843,.9091029E-4,.653E-5,0
UKUBE-1,2014-037F,2026-07-08T06:07:40.137888,15.13879421,.00033176,98.4246,194.7456,100.2797,259.8806,0,U,40074,999,65174,.23626988E-3,.4196E-4,0
BRITE-PL2 (HEWELIUSZ),2014-049B,2026-07-08T06:15:31.782528,14.94672181,.00148689,97.9110,301.4258,44.9220,315.3201,0,U,40119,999,64459,.16449684E-3,.1727E-4,0
AEROCUBE 5C,2015-058B,2026-07-08T07:00:17.105760,14.91547788,.01318676,64.7654,196.9293,55.0711,306.2706,0,U,40965,999,36880,.16825503E-3,.1816E-4,0
AEROCUBE 7,2015-058C,2026-07-08T08:40:21.149760,14.95869940,.01215757,64.7608,178.4861,53.3804,307.8418,0,U,40966,999,36912,.23359346E-3,.2855E-4,0
FOX-1A (AO-85),2015-058D,2026-07-08T08:18:40.529088,14.91062267,.01318339,64.7733,213.2226,48.4039,312.8281,0,U,40967,999,11672,.15149463E-3,.1594E-4,0
SINOD-D 1,2015-058E,2026-07-08T11:17:29.360544,14.96046656,.01205081,64.7734,192.2541,44.7381,316.3376,0,U,40968,999,11984,.25217828E-3,.3105E-4,0
SNAP-3 ALICE,2015-058G,2026-07-08T13:07:24.652704,15.65825803,.00236893,64.7498,29.7958,353.4785,6.6051,0,U,40970,999,12022,.12332564E-2,.129555E-2,0
LMRST-SAT,2015-058H,2026-07-08T00:55:42.469536,14.90676691,.01333689,64.7739,210.5563,50.5319,310.7501,0,U,40971,999,11666,.14331681E-3,.1488E-4,0
SNAP-3 EDDIE,2015-058J,2026-07-08T12:28:48.055296,15.67091294,.00245975,64.7405,20.4534,356.2396,3.8564,0,U,40972,999,12236,.11247068E-2,.124407E-2,0
PROPCUBE 3,2015-058K,2026-07-08T00:32:59.843904,14.94377515,.01252338,64.7669,187.4306,51.7463,309.4841,0,U,40973,999,11791,.19686281E-3,.2298E-4,0
BISONSAT,2015-058L,2026-07-07T20:56:24.465696,15.16787657,.0081376,64.7578,106.7372,38.9546,321.7402,0,U,40974,999,11875,.44683985E-3,.9399E-4,0
SNAP-3 JIMI,2015-058M,2026-07-08T06:57:39.670272,15.02542304,.01072807,64.7636,152.9920,46.9801,314.0242,0,U,40975,999,11739,.3194581E-3,.4639E-4,0
PROPCUBE 1 (FLORA),2015-058N,2026-07-08T13:11:55.906368,14.89308548,.01320121,64.7731,229.0228,52.6256,308.6791,0,U,40976,999,11944,.13407992E-3,.1322E-4,0
SINOD-D 3,2015-058P,2026-07-08T07:48:55.994112,14.94138888,.01205514,64.7708,209.8037,49.7948,311.3641,0,U,40977,999,11791,.18159159E-3,.2066E-4,0
RAVAN,2016-067B,2026-07-08T03:22:54.299136,15.56890885,.00015648,97.9852,81.1647,269.3757,90.7317,0,U,41849,999,53095,.55666802E-3,.40037E-3,0
CELTEE 1,2016-067C,2026-07-08T14:31:24.708576,15.19898372,.00020974,98.0651,57.6329,118.4249,241.7196,0,U,41850,999,52913,.15879697E-3,.3332E-4,0
OPTICUBE 04,2016-067D,2026-07-08T08:31:00.726528,15.09751902,.00166177,98.0684,42.7419,49.7646,310.5032,0,U,41851,999,52836,.96030506E-4,.1482E-4,0
AEROCUBE 8D,2016-067E,2026-07-08T02:14:05.162784,15.24701518,.00049009,98.0657,60.8554,74.3063,285.8713,0,U,41852,999,52925,.16339274E-3,.3959E-4,0
AEROCUBE 8C,2016-067F,2026-07-07T01:33:16.500384,15.24945674,.00051099,98.0530,56.9510,10.9574,349.1772,0,U,41853,999,52909,.23555499E-3,.5788E-4,0
CORVUS BC2,2017-042X,2026-07-08T09:14:31.056288,15.06433206,.00139359,97.4092,349.9145,44.8097,315.4254,0,U,42846,999,49025,.15156254E-3,.2179E-4,0
CORVUS BC1,2017-042Y,2026-07-08T05:52:06.021696,15.06597967,.00123403,97.4125,350.6071,24.3620,335.8189,0,U,42847,999,49026,.13057561E-3,.1877E-4,0
MAKERSAT 0,2017-073D,2026-07-08T09:38:31.359840,15.32828073,.01050799,97.4598,72.0927,196.4808,163.3010,0,U,43016,999,46971,.32792749E-3,.1232E-3,0
SIRION PATHFINDER-2,2018-099B,2026-07-08T09:19:17.226912,15.14742044,.00077736,97.4245,237.9427,216.4315,143.6389,0,U,43759,999,41583,.14704656E-3,.2662E-4,0
